[{"OBJECT_NAME":"SDA_1667","OBJECT_ID":"2025-230D","EPOCH":"2026-03-09T17:13:30.645984","MEAN_MOTION":13.84901461,"ECCENTRICITY":0.00041039,"INCLINATION":81.2986,"RA_OF_ASC_NODE":303.9273,"ARG_OF_PERICENTER":81.7759,"MEAN_ANOMALY":278.3863,"EPHEMERIS_TYPE":0,"CLASSIFICATION_TYPE":"U","NORAD_CAT_ID":65977,"ELEMENT_SET_NO":999,"REV_AT_EPOCH":2004,"BSTAR":0.00023812804,"MEAN_MOTION_DOT":2.81e-6,"MEAN_MOTION_DDOT":0},{"OBJECT_NAME":"SDA_1673","OBJECT_ID":"2025-230K","EPOCH":"2026-03-09T17:15:35.607168","MEAN_MOTION":13.85421507,"ECCENTRICITY":0.00025222,"INCLINATION":81.3013,"RA_OF_ASC_NODE":303.8171,"ARG_OF_PERICENTER":101.7636,"MEAN_ANOMALY":258.3805,"EPHEMERIS_TYPE":0,"CLASSIFICATION_TYPE":"U","NORAD_CAT_ID":65983,"ELEMENT_SET_NO":999,"REV_AT_EPOCH":2005,"BSTAR":-0.017090367,"MEAN_MOTION_DOT":-0.00019388,"MEAN_MOTION_DDOT":0}]
